[
    {
        "Altitude(m)": 622205.8984857681,
        "Argument of Periapsis(deg)": 0.0,
        "Eccentricity": 0.0,
        "Inclination(deg)": 60.0,
        "Latitude(deg)": -52.16252096122891,
        "Longitude(deg)": -117.29966457637344,
        "Mean Anomaly(deg)": -114.54549999999999,
        "RAAN(deg)": 114.99999999999999,
        "Satellite Name": "Test1 521",
        "Satellite Number": 521,
        "Semi-Major Axis(m)": 6980739.136638005,
        "Time(s)": 0
    },
    {
        "Altitude(m)": 622344.8051504587,
        "Argument of Periapsis(deg)": 0.00010418945913296404,
        "Eccentricity": 0.0,
        "Inclination(deg)": 60.0,
        "Latitude(deg)": -52.52010116934941,
        "Longitude(deg)": -116.51845145775344,
        "Mean Anomaly(deg)": -113.92539385453814,
        "RAAN(deg)": 114.99957995086024,
        "Satellite Name": "Test1 521",
        "Satellite Number": 521,
        "Semi-Major Axis(m)": 6980739.136638005,
        "Time(s)": 10
    }
]